STARLINK-32029          
1 60145U 24120L   26078.93374615  .00001238  00000+0  53948-4 0  9992
2 60145  53.1608 272.4064 0001131  91.9205 268.1925 15.30189270 97946
STARLINK-32127          
1 60146U 24120M   26078.89786877 -.00000559  00000+0 -67518-5 0  9991
2 60146  53.1600 272.1860 0000969  95.3117 264.7994 15.30193643 97945
STARLINK-32019          
1 60147U 24120N   26078.77568225 -.00000759  00000+0 -13511-4 0  9999
2 60147  53.1601 272.8433 0001044  99.2119 260.9000 15.30191439 97925
STARLINK-32021          
1 60148U 24120P   26078.91376410  .00002925  00000+0  11079-3 0  9990
2 60148  53.1598 262.3327 0001203  79.6042 280.5095 15.30214058 98163
STARLINK-32022          
1 60149U 24120Q   26078.85893306 -.00000268  00000+0  30585-5 0  9996
2 60149  53.1596 272.6499 0000813  90.9046 269.2048 15.30190803 98019
STARLINK-32014          
1 60150U 24120R   26078.91475281 -.00000157  00000+0  68414-5 0  9992
2 60150  53.1587 272.2871 0001186  92.2336 267.8801 15.30190911 97944
STARLINK-32004          
1 60151U 24120S   26078.91792074 -.00000889  00000+0 -17909-4 0  9990
2 60151  53.1596 272.3056 0001139  94.0309 266.0822 15.30188968 98022
STARLINK-32147          
1 60152U 24120T   26078.82316760  .00000053  00000+0  13913-4 0  9997
2 60152  53.1605 273.1403 0000867  86.0631 274.0469 15.30197136 97926
STARLINK-32131          
1 60153U 24120U   26078.80628661 -.00000918  00000+0 -18894-4 0  9997
2 60153  53.1602 273.0317 0001153  86.7590 273.3543 15.30193796 98000
STARLINK-32145          
1 60154U 24120V   26078.91053068 -.00004071  00000+0 -12536-3 0  9993
2 60154  53.1588 272.2605 0001490 104.0502 256.0664 15.30207122 97949
STARLINK-32137          
1 60155U 24120W   26078.79678855  .00000950  00000+0  44195-4 0  9994
2 60155  53.1595 272.9718 0001218  91.0321 269.0820 15.30188605 97922
STARLINK-32048          
1 60156U 24120X   26078.86527377  .00002005  00000+0  79833-4 0  9995
2 60156  53.1599 272.6878 0001176  94.9331 265.1804 15.30190335 97930
STARLINK-32129          
1 60157U 24120Y   26078.82950132 -.00000097  00000+0  88536-5 0  9992
2 60157  53.1609 273.1771 0001136  95.7025 264.4105 15.30193599 98006
STARLINK-11168 [DTC]    
1 60183U 24124A   26078.42124447  .00000648  00000+0  10212-4 0  9999
2 60183  53.1582 113.2031 0001358  91.4943 268.6230 15.69694118 99254
STARLINK-11187 [DTC]    
1 60184U 24124B   26078.35266297 -.00001081  00000+0 -40611-5 0  9993
2 60184  53.1586 113.4821 0001156  78.1169 281.9978 15.69709969 98051
STARLINK-11180 [DTC]    
1 60185U 24124C   26078.47509244  .00000468  00000+0  87213-5 0  9994
2 60185  53.1587 112.8220 0001005  72.0442 288.0685 15.69715972 98075
