[{"OBJECT_NAME":"STARLINK-32029","OBJECT_ID":"2024-120L","EPOCH":"2026-03-19T22:24:35.667360","MEAN_MOTION":15.3018927,"ECCENTRICITY":0.00011318,"INCLINATION":53.1608,"RA_OF_ASC_NODE":272.4064,"ARG_OF_PERICENTER":91.9205,"MEAN_ANOMALY":268.1925,"EPHEMERIS_TYPE":0,"CLASSIFICATION_TYPE":"U","NORAD_CAT_ID":60145,"ELEMENT_SET_NO":999,"REV_AT_EPOCH":9794,"BSTAR":5.3947727e-5,"MEAN_MOTION_DOT":1.238e-5,"MEAN_MOTION_DDOT":0},{"OBJECT_NAME":"STARLINK-32127","OBJECT_ID":"2024-120M","EPOCH":"2026-03-19T21:32:55.861728","MEAN_MOTION":15.30193643,"ECCENTRICITY":9.696e-5,"INCLINATION":53.16,"RA_OF_ASC_NODE":272.186,"ARG_OF_PERICENTER":95.3117,"MEAN_ANOMALY":264.7994,"EPHEMERIS_TYPE":0,"CLASSIFICATION_TYPE":"U","NORAD_CAT_ID":60146,"ELEMENT_SET_NO":999,"REV_AT_EPOCH":9794,"BSTAR":-6.751841e-6,"MEAN_MOTION_DOT":-5.59e-6,"MEAN_MOTION_DDOT":0},{"OBJECT_NAME":"STARLINK-32019","OBJECT_ID":"2024-120N","EPOCH":"2026-03-19T18:36:58.946400","MEAN_MOTION":15.30191439,"ECCENTRICITY":0.00010444,"INCLINATION":53.1601,"RA_OF_ASC_NODE":272.8433,"ARG_OF_PERICENTER":99.2119,"MEAN_ANOMALY":260.9,"EPHEMERIS_TYPE":0,"CLASSIFICATION_TYPE":"U","NORAD_CAT_ID":60147,"ELEMENT_SET_NO":999,"REV_AT_EPOCH":9792,"BSTAR":-1.3510878e-5,"MEAN_MOTION_DOT":-7.59e-6,"MEAN_MOTION_DDOT":0},{"OBJECT_NAME":"STARLINK-32021","OBJECT_ID":"2024-120P","EPOCH":"2026-03-19T21:55:49.218240","MEAN_MOTION":15.30214058,"ECCENTRICITY":0.00012038,"INCLINATION":53.1598,"RA_OF_ASC_NODE":262.3327,"ARG_OF_PERICENTER":79.6042,"MEAN_ANOMALY":280.5095,"EPHEMERIS_TYPE":0,"CLASSIFICATION_TYPE":"U","NORAD_CAT_ID":60148,"ELEMENT_SET_NO":999,"REV_AT_EPOCH":9816,"BSTAR":0.00011078848,"MEAN_MOTION_DOT":2.925e-5,"MEAN_MOTION_DDOT":0},{"OBJECT_NAME":"STARLINK-32022","OBJECT_ID":"2024-120Q","EPOCH":"2026-03-19T20:36:51.816384","MEAN_MOTION":15.30190803,"ECCENTRICITY":8.138e-5,"INCLINATION":53.1596,"RA_OF_ASC_NODE":272.6499,"ARG_OF_PERICENTER":90.9046,"MEAN_ANOMALY":269.2048,"EPHEMERIS_TYPE":0,"CLASSIFICATION_TYPE":"U","NORAD_CAT_ID":60149,"ELEMENT_SET_NO":999,"REV_AT_EPOCH":9801,"BSTAR":3.058466e-6,"MEAN_MOTION_DOT":-2.68e-6,"MEAN_MOTION_DDOT":0},{"OBJECT_NAME":"STARLINK-32014","OBJECT_ID":"2024-120R","EPOCH":"2026-03-19T21:57:14.642784","MEAN_MOTION":15.30190911,"ECCENTRICITY":0.00011862,"INCLINATION":53.1587,"RA_OF_ASC_NODE":272.2871,"ARG_OF_PERICENTER":92.2336,"MEAN_ANOMALY":267.8801,"EPHEMERIS_TYPE":0,"CLASSIFICATION_TYPE":"U","NORAD_CAT_ID":60150,"ELEMENT_SET_NO":999,"REV_AT_EPOCH":9794,"BSTAR":6.841374e-6,"MEAN_MOTION_DOT":-1.57e-6,"MEAN_MOTION_DDOT":0},{"OBJECT_NAME":"STARLINK-32004","OBJECT_ID":"2024-120S","EPOCH":"2026-03-19T22:01:48.351936","MEAN_MOTION":15.30188968,"ECCENTRICITY":0.00011399,"INCLINATION":53.1596,"RA_OF_ASC_NODE":272.3056,"ARG_OF_PERICENTER":94.0309,"MEAN_ANOMALY":266.0822,"EPHEMERIS_TYPE":0,"CLASSIFICATION_TYPE":"U","NORAD_CAT_ID":60151,"ELEMENT_SET_NO":999,"REV_AT_EPOCH":9802,"BSTAR":-1.7908647e-5,"MEAN_MOTION_DOT":-8.89e-6,"MEAN_MOTION_DDOT":0},{"OBJECT_NAME":"STARLINK-32147","OBJECT_ID":"2024-120T","EPOCH":"2026-03-19T19:45:21.680640","MEAN_MOTION":15.30197136,"ECCENTRICITY":8.677e-5,"INCLINATION":53.1605,"RA_OF_ASC_NODE":273.1403,"ARG_OF_PERICENTER":86.0631,"MEAN_ANOMALY":274.0469,"EPHEMERIS_TYPE":0,"CLASSIFICATION_TYPE":"U","NORAD_CAT_ID":60152,"ELEMENT_SET_NO":999,"REV_AT_EPOCH":9792,"BSTAR":1.3913353e-5,"MEAN_MOTION_DOT":5.3e-7,"MEAN_MOTION_DDOT":0},{"OBJECT_NAME":"STARLINK-32131","OBJECT_ID":"2024-120U","EPOCH":"2026-03-19T19:21:03.163104","MEAN_MOTION":15.30193796,"ECCENTRICITY":0.00011534,"INCLINATION":53.1602,"RA_OF_ASC_NODE":273.0317,"ARG_OF_PERICENTER":86.759,"MEAN_ANOMALY":273.3543,"EPHEMERIS_TYPE":0,"CLASSIFICATION_TYPE":"U","NORAD_CAT_ID":60153,"ELEMENT_SET_NO":999,"REV_AT_EPOCH":9800,"BSTAR":-1.8894105e-5,"MEAN_MOTION_DOT":-9.18e-6,"MEAN_MOTION_DDOT":0},{"OBJECT_NAME":"STARLINK-32145","OBJECT_ID":"2024-120V","EPOCH":"2026-03-19T21:51:09.850752","MEAN_MOTION":15.30207122,"ECCENTRICITY":0.00014903,"INCLINATION":53.1588,"RA_OF_ASC_NODE":272.2605,"ARG_OF_PERICENTER":104.0502,"MEAN_ANOMALY":256.0664,"EPHEMERIS_TYPE":0,"CLASSIFICATION_TYPE":"U","NORAD_CAT_ID":60154,"ELEMENT_SET_NO":999,"REV_AT_EPOCH":9794,"BSTAR":-0.0001253627,"MEAN_MOTION_DOT":-4.071e-5,"MEAN_MOTION_DDOT":0},{"OBJECT_NAME":"STARLINK-32137","OBJECT_ID":"2024-120W","EPOCH":"2026-03-19T19:07:22.530720","MEAN_MOTION":15.30188605,"ECCENTRICITY":0.00012187,"INCLINATION":53.1595,"RA_OF_ASC_NODE":272.9718,"ARG_OF_PERICENTER":91.0321,"MEAN_ANOMALY":269.082,"EPHEMERIS_TYPE":0,"CLASSIFICATION_TYPE":"U","NORAD_CAT_ID":60155,"ELEMENT_SET_NO":999,"REV_AT_EPOCH":9792,"BSTAR":4.4195013e-5,"MEAN_MOTION_DOT":9.5e-6,"MEAN_MOTION_DDOT":0},{"OBJECT_NAME":"STARLINK-32048","OBJECT_ID":"2024-120X","EPOCH":"2026-03-19T20:45:59.653728","MEAN_MOTION":15.30190335,"ECCENTRICITY":0.00011767,"INCLINATION":53.1599,"RA_OF_ASC_NODE":272.6878,"ARG_OF_PERICENTER":94.9331,"MEAN_ANOMALY":265.1804,"EPHEMERIS_TYPE":0,"CLASSIFICATION_TYPE":"U","NORAD_CAT_ID":60156,"ELEMENT_SET_NO":999,"REV_AT_EPOCH":9793,"BSTAR":7.9833465e-5,"MEAN_MOTION_DOT":2.005e-5,"MEAN_MOTION_DDOT":0},{"OBJECT_NAME":"STARLINK-32129","OBJECT_ID":"2024-120Y","EPOCH":"2026-03-19T19:54:28.914048","MEAN_MOTION":15.30193599,"ECCENTRICITY":0.00011364,"INCLINATION":53.1609,"RA_OF_ASC_NODE":273.1771,"ARG_OF_PERICENTER":95.7025,"MEAN_ANOMALY":264.4105,"EPHEMERIS_TYPE":0,"CLASSIFICATION_TYPE":"U","NORAD_CAT_ID":60157,"ELEMENT_SET_NO":999,"REV_AT_EPOCH":9800,"BSTAR":8.853604e-6,"MEAN_MOTION_DOT":-9.7e-7,"MEAN_MOTION_DDOT":0},{"OBJECT_NAME":"STARLINK-11168 [DTC]","OBJECT_ID":"2024-124A","EPOCH":"2026-03-19T10:06:35.522208","MEAN_MOTION":15.69694118,"ECCENTRICITY":0.00013585,"INCLINATION":53.1582,"RA_OF_ASC_NODE":113.2031,"ARG_OF_PERICENTER":91.4943,"MEAN_ANOMALY":268.623,"EPHEMERIS_TYPE":0,"CLASSIFICATION_TYPE":"U","NORAD_CAT_ID":60183,"ELEMENT_SET_NO":999,"REV_AT_EPOCH":9925,"BSTAR":1.0211819e-5,"MEAN_MOTION_DOT":6.48e-6,"MEAN_MOTION_DDOT":0},{"OBJECT_NAME":"STARLINK-11187 [DTC]","OBJECT_ID":"2024-124B","EPOCH":"2026-03-19T08:27:50.080608","MEAN_MOTION":15.69709969,"ECCENTRICITY":0.00011562,"INCLINATION":53.1586,"RA_OF_ASC_NODE":113.4821,"ARG_OF_PERICENTER":78.1169,"MEAN_ANOMALY":281.9978,"EPHEMERIS_TYPE":0,"CLASSIFICATION_TYPE":"U","NORAD_CAT_ID":60184,"ELEMENT_SET_NO":999,"REV_AT_EPOCH":9805,"BSTAR":-4.061076e-6,"MEAN_MOTION_DOT":-1.081e-5,"MEAN_MOTION_DDOT":0},{"OBJECT_NAME":"STARLINK-11180 [DTC]","OBJECT_ID":"2024-124C","EPOCH":"2026-03-19T11:24:07.986816","MEAN_MOTION":15.69715972,"ECCENTRICITY":0.0001005,"INCLINATION":53.1587,"RA_OF_ASC_NODE":112.822,"ARG_OF_PERICENTER":72.0442,"MEAN_ANOMALY":288.0685,"EPHEMERIS_TYPE":0,"CLASSIFICATION_TYPE":"U","NORAD_CAT_ID":60185,"ELEMENT_SET_NO":999,"REV_AT_EPOCH":9807,"BSTAR":8.721314e-6,"MEAN_MOTION_DOT":4.68e-6,"MEAN_MOTION_DDOT":0}]
